299P/Catalina-PANSTARRS,e,10.4674,271.5866,323.7110,4.389283,0.1071800,0.28091518,341.9413,11/14.0/2023,2000,g 11.5,4.0
# From MPEC 2023-VM5
300P/Catalina,e,5.6748,95.6168,222.9455,2.698402,0.2223536,0.69172677,48.2254,11/14.0/2023,2000,g 16.0,4.0
# From MPC 89014
301P/LINEAR-NEAT,e,10.3348,351.0911,193.5339,5.744240,0.0715905,0.58570010,241.9819,11/14.0/2023,2000,g 13.0,4.0
# From MPEC 2023-N01
302P/Lemmon-PANSTARRS,e,6.0341,121.7189,208.5766,4.271170,0.1116564,0.23002043,306.2836,11/14.0/2023,2000,g 12.5,4.0
# From MPC 92278
303P/NEAT,e,7.0181,347.9870,356.9915,5.042174,0.0870517,0.51071435,287.8649,11/14.0/2023,2000,g 13.5,4.0
# From MPEC 2022-K19
304P/Ory,e,2.6065,58.9402,335.2522,3.150490,0.1762532,0.60102507,209.3187,11/14.0/2023,2000,g 16.5,4.0
# From MPC101100
305P/Skiff,e,11.6668,240.1469,147.3619,4.637364,0.0986955,0.69402519,323.5714,11/14.0/2023,2000,g 18.0,4.0
# From MPC 92278
306P/LINEAR,e,8.3063,341.3774,0.8896,3.124357,0.1784691,0.59289271,248.1888,11/14.0/2023,2000,g 19.0,4.0
# From MPC 92278
307P/LINEAR,e,4.4373,158.1803,222.1761,5.788425,0.0707723,0.67555849,229.5139,11/14.0/2023,2000,g 15.0,4.0
# From MPEC 2022-C56
308P/Lagerkvist-Carsenty,e,4.8532,63.0965,333.6733,6.599287,0.0581378,0.36475668,180.5920,11/14.0/2023,2000,g 13.0,2.0
# From MPEC 2023-VM5
309P/LINEAR,e,17.0234,10.1447,49.9279,4.375729,0.1076784,0.61843138,345.3527,11/14.0/2023,2000,g 15.0,4.0
# From MPEC 2023-VM5
310P/Hill,e,13.1218,8.9163,31.6036,4.188434,0.1149811,0.42300699,2.4558,11/14.0/2023,2000,g 13.5,4.0
# From MPEC 2023-VM5
311P/PANSTARRS,e,4.9699,279.1806,144.3004,2.189092,0.3043043,0.11597781,345.0787,11/14.0/2023,2000,g 17.0,4.0
# From MPEC 2021-BE3
312P/NEAT,e,19.7613,144.7054,207.6527,3.470647,0.1524363,0.42736242,174.5231,11/14.0/2023,2000,g 16.0,4.0
# From MPEC 2021-S45
313P/Gibbs,e,10.9803,106.0048,254.8530,3.164178,0.1751107,0.23481683,228.7808,11/14.0/2023,2000,g 15.0,4.0
# From MPC105243
314P/Montani,e,3.9893,267.6122,213.8632,7.253510,0.0504524,0.41749212,130.7693,11/14.0/2023,2000,g  9.5,4.0
# From MPEC 2023-J29
315P/LONEOS,e,17.7325,68.7204,65.7760,4.939371,0.0897835,0.52135812,228.5325,11/14.0/2023,2000,g 11.0,4.0
# From MPC 92279
316P/LONEOS-Christensen,e,9.8177,192.2343,243.7542,4.412061,0.1063511,0.15763294,323.0976,11/14.0/2023,2000,g 13.5,4.0
# From MPEC 2020-C98
317P/WISE,e,11.9614,275.4691,334.8190,2.961718,0.1933698,0.57101225,221.2735,11/14.0/2023,2000,g 17.5,4.0
# From MPC102103
318P/McNaught-Hartley,e,17.8758,35.5574,313.3191,7.508437,0.0479049,0.67458733,140.8859,11/14.0/2023,2000,g  8.5,6.0
# From MPC 97499
319P/Catalina-McNaught,e,15.0944,111.3454,203.6661,3.564041,0.1464840,0.66638716,86.8255,11/14.0/2023,2000,g 15.0,4.0
# From MPC 96281
320P/McNaught,e,4.9043,295.9426,0.7855,3.094827,0.1810296,0.68492819,186.7319,11/14.0/2023,2000,g 20.5,4.0
# From MPC105243
321P/SOHO,e,20.0792,165.0108,172.7501,2.422736,0.2613636,0.98106158,0.0000,10/26.6101/2023,2000,g 20.0,4.0
# From MPC102103
322P/SOHO,e,11.4742,351.5136,56.9022,2.507789,0.2481804,0.97998274,0.0000,08/21.0871/2023,2000,g 19.0,4.0
# From MPEC 2016-Y36
323P/SOHO,e,5.3109,324.3748,353.0635,2.583381,0.2373676,0.98468000,0.0000,03/14.4730/2025,2000,g 20.0,4.0
# From MPEC 2021-W31
324P/LaSagra,e,21.4002,270.5800,57.5576,3.095304,0.1809877,0.15335761,167.0895,11/14.0/2023,2000,g 13.0,4.0
# From MPEC 2022-TA0
325P/Yang-Gao,e,16.7449,257.2839,344.3163,3.538228,0.1480899,0.59276305,88.0836,11/14.0/2023,2000,g 14.0,4.0
# From MPEC 2023-VM5
326P/Hill,e,2.4711,99.8002,278.6509,4.066449,0.1201935,0.31888192,354.4166,11/14.0/2023,2000,g 13.5,4.0
# From MPEC 2023-T65
327P/VanNess,e,36.2493,173.9862,185.0308,3.562094,0.1466041,0.56303664,64.1633,11/14.0/2023,2000,g 16.0,4.0
# From MPC109148
328P/LONEOS-Tucker,e,17.6750,341.6534,30.5984,4.188577,0.1149752,0.55269800,330.4559,11/14.0/2023,2000,g 14.5,4.0
# From MPC101101
329P/LINEAR-Catalina,e,21.7092,87.6853,343.5434,5.186154,0.0834518,0.67865186,242.2145,11/14.0/2023,2000,g 13.5,4.0
# From MPEC 2023-J29
330P/Catalina,e,15.7230,293.0793,188.8222,6.619348,0.0578737,0.54955783,152.5076,11/14.0/2023,2000,g 12.0,4.0
# From MPEC 2023-KD6
331P/Gibbs,e,9.7403,216.7526,184.8132,3.004670,0.1892382,0.04145272,214.6894,11/14.0/2023,2000,g 12.0,4.0
# From MPEC 2016-K18
332P/Ikeya-Murakami,e,9.3813,3.7645,152.2945,3.087088,0.1817107,0.48935236,148.6030,11/14.0/2023,2000,g 18.0,4.0
# From MPEC 2016-K18
332P-A/Ikeya-Murakami,e,9.3817,152.3099,3.7492,3.087085,0.1817110,0.48935486,148.6028,11/14.0/2023,2000,g  9.0,4.0
# From MPEC 2016-EI8
332P-B/Ikeya-Murakami,e,9.3805,3.8028,152.3711,3.082329,0.1821317,0.48970701,359.9699,03/17.0/2016,2000,g 19.0,4.0
# From MPEC 2016-K18
332P-C/Ikeya-Murakami,e,9.3807,152.3012,3.7496,3.087051,0.1817140,0.48936040,148.6194,11/14.0/2023,2000,g 16.5,4.0
# From MPEC 2016-ED0
332P-D/Ikeya-Murakami,e,9.3761,3.7923,152.4393,3.081138,0.1822373,0.48977814,359.9486,03/17.0/2016,2000,g 19.0,4.0
# From MPEC 2016-ED0
332P-E/Ikeya-Murakami,e,9.3774,3.8228,152.2825,3.079877,0.1823493,0.48922008,359.9889,03/17.0/2016,2000,g 21.0,4.0
# From MPEC 2016-ED0
332P-F/Ikeya-Murakami,e,9.5293,3.4757,152.8203,3.163214,0.1751908,0.49918860,359.8501,03/17.0/2016,2000,g 21.0,4.0
# From MPEC 2016-ED0
332P-G/Ikeya-Murakami,e,9.2523,3.6955,154.4000,3.050519,0.1849880,0.49200362,359.9006,03/19.0/2016,2000,g 19.0,4.0
# From MPC100285
332P-H/Ikeya-Murakami,e,9.3813,152.3018,3.7493,3.087234,0.1816979,0.48939597,148.5411,11/14.0/2023,2000,g 19.0,4.0
# From MPEC 2016-ED0
332P-I/Ikeya-Murakami,e,9.3791,3.8048,152.3297,3.081767,0.1821815,0.48955490,359.9360,03/17.0/2016,2000,g 20.5,2.0
# From MPEC 2016-EI8
332P-J/Ikeya-Murakami,e,9.4296,3.6729,152.7712,3.115165,0.1792596,0.49429435,359.8613,03/17.0/2016,2000,g 20.5,2.0
# From MPEC 2020-L06
333P/LINEAR,e,31.9843,115.5735,25.9824,4.226410,0.1134349,0.73663942,316.8019,11/14.0/2023,2000,g 15.0,4.0
# From MPEC 2023-J29
334P/NEAT,e,20.3817,90.5184,90.0481,6.831974,0.0551931,0.35081650,129.9815,11/14.0/2023,2000,g 10.5,4.0
# From MPEC 2023-M14
335P/Gibbs,e,7.2931,330.8293,162.2968,3.577983,0.1456286,0.54636839,66.8390,11/14.0/2023,2000,g 16.8,4.0
# From MPC105244
336P/McNaught,e,17.8236,298.2195,308.6729,5.037536,0.0871720,0.44378651,216.3241,11/14.0/2023,2000,g 13.5,4.0
# From MPEC 2023-UR6
337P/WISE,e,15.3913,105.7316,161.5021,3.293260,0.1649168,0.49775370,82.4846,11/14.0/2023,2000,g 17.0,4.0
# From MPEC 2023-J29
338P/McNaught,e,25.3863,9.7949,4.5616,3.891986,0.1283651,0.41213347,326.2461,11/14.0/2023,2000,g 12.0,4.0
# From MPC101101
339P/Gibbs,e,5.7332,27.4788,172.7010,3.700772,0.1384413,0.63568049,10.3913,11/14.0/2023,2000,g 17.0,4.0
# From MPC133426
340P/Boattini,e,2.0782,291.6800,36.0363,4.249221,0.1125227,0.28049423,286.4027,11/14.0/2023,2000,g 14.3,4.0
# From MPEC 2023-J29
341P/Gibbs,e,3.7969,29.9665,312.3140,4.288751,0.1109706,0.41557056,301.6824,11/14.0/2023,2000,g 12.5,4.0
# From MPC101101
342P/SOHO,e,11.6893,73.3084,27.6474,3.041137,0.1858447,0.98287753,0.0000,10/19.3261/2021,2000,g  9.0,4.0
# From MPEC 2023-J29
343P/NEAT-LONEOS,e,5.5950,257.0733,137.5529,5.457442,0.0773073,0.58530607,191.4332,11/14.0/2023,2000,g 14.0,4.0
# From MPEC 2023-J29
344P/Read,e,3.4976,273.1036,140.5182,4.858756,0.0920273,0.42366004,235.9168,11/14.0/2023,2000,g 13.0,4.0
# From MPEC 2022-K19
345P/LINEAR,e,2.7278,154.5967,196.6300,4.032512,0.1217140,0.22135541,324.6088,11/14.0/2023,2000,g 12.0,4.0
# From MPEC 2022-K19
346P/Catalina,e,22.2134,102.4529,335.9925,4.471577,0.1042349,0.50369067,256.6804,11/14.0/2023,2000,g 14.0,4.0
# From MPEC 2023-VM5
347P/PANSTARRS,e,11.7556,260.9991,98.4340,3.607750,0.1438300,0.38675617,16.8251,11/14.0/2023,2000,g 15.0,4.0
# From MPEC 2022-ED3
348P/PANSTARRS,e,17.7367,312.9427,135.6890,3.151888,0.1761359,0.30727954,112.5933,11/14.0/2023,2000,g 14.0,4.0
# From MPEC 2022-K19
349P/Lemmon,e,5.4888,331.7558,255.8119,3.577875,0.1456352,0.29847181,331.5693,11/14.0/2023,2000,g 14.0,4.0
# From MPC111775
350P/McNaught,e,7.3637,65.2925,139.8192,4.082356,0.1194917,0.09412039,258.0366,11/14.0/2023,2000,g 14.0,4.0
# From MPC105244
351P/Wiegert-PANSTARRS,e,12.7772,352.6853,283.3529,4.440130,0.1053442,0.29483656,307.4778,11/14.0/2023,2000,g 12.5,4.0
# From MPEC 2023-J29
352P/Skiff,e,21.0146,28.0004,309.4011,6.650392,0.0574689,0.61724184,134.2394,11/14.0/2023,2000,g 13.2,4.0
# From MPEC 2020-AA5
353P/McNaught,e,28.4170,121.5447,230.4753,4.170567,0.1157208,0.47014345,248.8940,11/14.0/2023,2000,g 14.5,4.0
# From MPC105545
354P/LINEAR,e,5.2530,132.7461,320.0216,2.289938,0.2844254,0.12459057,8.8536,11/14.0/2023,2000,g 15.5,4.0
# From MPEC 2023-CD7
355P/LINEAR-NEAT,e,11.0472,51.4346,336.3382,3.468603,0.1525710,0.50793906,338.7282,11/14.0/2023,2000,g 15.5,2.0
# From MPEC 2022-F14
356P/WISE,e,9.6401,160.8231,226.0910,4.155247,0.1163614,0.35608331,250.5245,11/14.0/2023,2000,g 14.0,4.0
# From MPC114609
357P/Hill,e,6.3150,44.5818,1.4227,4.456633,0.1047596,0.43609493,208.6354,11/14.0/2023,2000,g 15.5,4.0
# From MPEC 2023-VM5
358P/PANSTARRS,e,11.0604,85.6816,299.7085,3.149510,0.1763354,0.23961826,0.5600,11/14.0/2023,2000,g 18.0,4.0
# From MPC110086
359P/LONEOS,e,10.2654,149.7833,200.2813,4.640753,0.0985874,0.32381007,224.0926,11/14.0/2023,2000,g 13.5,4.0
# From MPC108599
360P/WISE,e,24.1086,2.2185,354.2170,3.698108,0.1385909,0.49924668,314.9994,11/14.0/2023,2000,g 19.5,6.0
# From MPEC 2023-CD7
361P/Spacewatch,e,13.9037,203.2597,219.0300,4.934027,0.0899294,0.43945048,176.0624,11/14.0/2023,2000,g 12.0,4.0
# From MPEC 2017-V13
362P/,e,15.5560,192.4958,53.5695,3.973147,0.1244521,0.27868021,328.9722,11/14.0/2023,2000,g 12.9,2.0
# From MPC114609
363P/Lemmon,e,5.3922,146.7031,340.8987,3.574573,0.1458370,0.51914967,306.7364,11/14.0/2023,2000,g 17.5,4.0
# From MPEC 2023-VM5
364P/PANSTARRS,e,12.1378,46.1471,212.0395,2.880508,0.2016046,0.72176344,37.0894,11/14.0/2023,2000,g 17.0,2.0
# From MPC111775
365P/PANSTARRS,e,9.8493,86.6578,67.4289,3.156084,0.1757848,0.58135007,6.2591,11/14.0/2023,2000,g 17.0,4.0
# From MPC114610
